{
  "type": "FeatureCollection",
  "features": [
    {
      "type": "Feature",
      "properties": {
        "name": "Bilkent University campus boundary",
        "source": "OpenStreetMap way 28229642",
        "licence": "ODbL-1.0"
      },
      "geometry": {
        "type": "Polygon",
        "coordinates": [
          [
            [32.7414833, 39.8648116], [32.7419927, 39.8639942], [32.7430559, 39.8618752], [32.746097, 39.8631591], [32.746406, 39.8627812], [32.7478474, 39.8628528], [32.7482986, 39.8633481], [32.7499805, 39.8630381], [32.7491777, 39.86256], [32.7495943, 39.8619345], [32.7496759, 39.8607445], [32.7511135, 39.8600527], [32.7527872, 39.8595586], [32.7554579, 39.8601022], [32.7571217, 39.8601433], [32.7595893, 39.860621], [32.7620569, 39.8613622], [32.7640412, 39.8619716], [32.7649151, 39.8627251], [32.7655039, 39.863512], [32.7657834, 39.8653319], [32.7657426, 39.8659986], [32.7653762, 39.8675479], [32.7653523, 39.8686637], [32.7653843, 39.8701496], [32.7646236, 39.8724816], [32.7644145, 39.8733004], [32.7640041, 39.8731891], [32.7637803, 39.8731243], [32.7626312, 39.874256], [32.7620594, 39.8751045], [32.7609067, 39.8747753], [32.7607074, 39.8747166], [32.7608581, 39.8744196], [32.7608163, 39.8744024], [32.7606929, 39.8743518], [32.7606335, 39.8743275], [32.7604496, 39.8742654], [32.7603768, 39.8743652], [32.7602413, 39.8746953], [32.7604145, 39.874781], [32.7601298, 39.8755672], [32.760044, 39.8774667], [32.7601674, 39.8778743], [32.7605525, 39.8783872], [32.7601749, 39.8788248], [32.7582072, 39.8785379], [32.7568924, 39.8777849], [32.7560654, 39.8789113], [32.7560673, 39.8807415], [32.7559684, 39.8811728], [32.7550165, 39.8808302], [32.7548895, 39.8810159], [32.7544847, 39.8808868], [32.7541455, 39.8807879], [32.7537413, 39.8807139], [32.7533563, 39.8807195], [32.75332, 39.8806242], [32.7529521, 39.8803284], [32.7525844, 39.8800328], [32.7514693, 39.8790963], [32.7507958, 39.8794346], [32.7507086, 39.8794287], [32.7506997, 39.8795064], [32.7494572, 39.8801064], [32.7485635, 39.8805692], [32.7481605, 39.8807868], [32.7479987, 39.8809236], [32.7479219, 39.8809993], [32.7475972, 39.8802501], [32.7472459, 39.8794973], [32.7468694, 39.8787695], [32.7462805, 39.8776898], [32.7461542, 39.8774871], [32.7443624, 39.8746883], [32.7438765, 39.8739058], [32.743758, 39.8736736], [32.743684, 39.8734762], [32.7434474, 39.8728371], [32.7433495, 39.8725727], [32.7432286, 39.8722463], [32.7429953, 39.8716162], [32.7428879, 39.8713341], [32.7426802, 39.8707885], [32.7424311, 39.8701342], [32.7422578, 39.8697435], [32.742199, 39.8696017], [32.7420724, 39.8692968], [32.7418488, 39.8675947], [32.7416265, 39.8659017], [32.7414833, 39.8648116]
          ]
        ]
      }
    }
  ]
}