{
  "type": "FeatureCollection",
  "features": [
    { "type": "Feature", "id": "omur-pharmacy", "properties": { "name": "Omur Pharmacy", "category": "Health", "description": "Omur Pharmacy." }, "geometry": { "type": "Point", "coordinates": [32.7491716, 39.8681627] } },
    { "type": "Feature", "id": "bilkent-health-center", "properties": { "name": "Bilkent Health Center", "category": "Health", "description": "Bilkent University Sa\u00c4\u0178l\u00c4\u00b1k Merkezi clinic." }, "geometry": { "type": "Point", "coordinates": [32.7491176, 39.8683183] } }
  ]
}